{
  "type": "FeatureCollection",
  "features": [
    {
      "type": "Feature",
      "properties": {
        "norad_id": 60182,
        "name": "ALOS-4 (DAICHI-4)",
        "group": "resource",
        "lat": -47.07928619735163,
        "lon": -99.09403258028478,
        "alt_km": 638.379869353761,
        "timestamp": "2025-12-20T18:51:31.375922+00:00",
        "meta_object_name": "ALOS-4 (DAICHI-4)",
        "meta_object_id": "2024-123A",
        "meta_epoch": "2025-12-20T12:57:49.238208",
        "meta_mean_motion": 14.79476103,
        "meta_eccentricity": 0.00013911,
        "meta_inclination": 97.9224,
        "meta_ra_of_asc_node": 89.2761,
        "meta_arg_of_pericenter": 101.5093,
        "meta_mean_anomaly": 258.6275,
        "meta_ephemeris_type": 0,
        "meta_classification_type": "U",
        "meta_norad_cat_id": 60182,
        "meta_element_set_no": 999,
        "meta_rev_at_epoch": 7946,
        "meta_bstar": 0.00019094037,
        "meta_mean_motion_dot": 1.375e-05,
        "meta_mean_motion_ddot": 0,
        "tle_line1": "1 60182U 24123A   25354.54015322  .00001375  00000+0  19094-3 0  9991",
        "tle_line2": "2 60182  97.9224  89.2761 0001391 101.5093 258.6275 14.79476103 79461"
      },
      "geometry": {
        "type": "Point",
        "coordinates": [
          -99.09403258028478,
          -47.07928619735163
        ]
      }
    },
    {
      "type": "Feature",
      "properties": {
        "norad_id": 60452,
        "name": "LEGION 3",
        "group": "resource",
        "lat": -36.32124584630756,
        "lon": -140.36166670109947,
        "alt_km": 516.5077239246011,
        "timestamp": "2025-12-20T18:51:31.375933+00:00",
        "meta_object_name": "LEGION 3",
        "meta_object_id": "2024-146A",
        "meta_epoch": "2025-12-20T11:12:02.797920",
        "meta_mean_motion": 15.15836147,
        "meta_eccentricity": 0.00156553,
        "meta_inclination": 45.002,
        "meta_ra_of_asc_node": 268.7081,
        "meta_arg_of_pericenter": 240.2627,
        "meta_mean_anomaly": 119.6694,
        "meta_ephemeris_type": 0,
        "meta_classification_type": "U",
        "meta_norad_cat_id": 60452,
        "meta_element_set_no": 999,
        "meta_rev_at_epoch": 7490,
        "meta_bstar": 0.00017169112,
        "meta_mean_motion_dot": 3.081e-05,
        "meta_mean_motion_ddot": 0,
        "tle_line1": "1 60452U 24146A   25354.46669905  .00003081  00000+0  17169-3 0  9996",
        "tle_line2": "2 60452  45.0020 268.7081 0015655 240.2627 119.6694 15.15836147 74904"
      },
      "geometry": {
        "type": "Point",
        "coordinates": [
          -140.36166670109947,
          -36.32124584630756
        ]
      }
    },
    {
      "type": "Feature",
      "properties": {
        "norad_id": 60453,
        "name": "LEGION 4",
        "group": "resource",
        "lat": -37.15744895394644,
        "lon": -50.46085628841349,
        "alt_km": 517.982770854639,
        "timestamp": "2025-12-20T18:51:31.375943+00:00",
        "meta_object_name": "LEGION 4",
        "meta_object_id": "2024-146B",
        "meta_epoch": "2025-12-20T09:37:35.920416",
        "meta_mean_motion": 15.15898192,
        "meta_eccentricity": 0.0008728,
        "meta_inclination": 45.0393,
        "meta_ra_of_asc_node": 0.8332,
        "meta_arg_of_pericenter": 352.3062,
        "meta_mean_anomaly": 7.7682,
        "meta_ephemeris_type": 0,
        "meta_classification_type": "U",
        "meta_norad_cat_id": 60453,
        "meta_element_set_no": 999,
        "meta_rev_at_epoch": 7374,
        "meta_bstar": 0.00019574392,
        "meta_mean_motion_dot": 3.551e-05,
        "meta_mean_motion_ddot": 0,
        "tle_line1": "1 60453U 24146B   25354.40111019  .00003551  00000+0  19574-3 0  9993",
        "tle_line2": "2 60453  45.0393   0.8332 0008728 352.3062   7.7682 15.15898192 73746"
      },
      "geometry": {
        "type": "Point",
        "coordinates": [
          -50.46085628841349,
          -37.15744895394644
        ]
      }
    },
    {
      "type": "Feature",
      "properties": {
        "norad_id": 60989,
        "name": "SENTINEL-2C",
        "group": "resource",
        "lat": 24.186917132206872,
        "lon": 63.269665097648264,
        "alt_km": 788.0397753353109,
        "timestamp": "2025-12-20T18:51:31.375954+00:00",
        "meta_object_name": "SENTINEL-2C",
        "meta_object_id": "2024-157A",
        "meta_epoch": "2025-12-20T03:38:23.300448",
        "meta_mean_motion": 14.30820273,
        "meta_eccentricity": 0.00012037,
        "meta_inclination": 98.5676,
        "meta_ra_of_asc_node": 66.5273,
        "meta_arg_of_pericenter": 95.83,
        "meta_mean_anomaly": 264.302,
        "meta_ephemeris_type": 0,
        "meta_classification_type": "U",
        "meta_norad_cat_id": 60989,
        "meta_element_set_no": 999,
        "meta_rev_at_epoch": 6738,
        "meta_bstar": 5.6238603e-05,
        "meta_mean_motion_dot": 1.04e-06,
        "meta_mean_motion_ddot": 0,
        "tle_line1": "1 60989U 24157A   25354.15165857  .00000104  00000+0  56239-4 0  9991",
        "tle_line2": "2 60989  98.5676  66.5273 0001203  95.8300 264.3020 14.30820273 67386"
      },
      "geometry": {
        "type": "Point",
        "coordinates": [
          63.269665097648264,
          24.186917132206872
        ]
      }
    },
    {
      "type": "Feature",
      "properties": {
        "norad_id": 61735,
        "name": "IONOSFERA-M 1",
        "group": "resource",
        "lat": 55.5985021121684,
        "lon": -148.41057512293995,
        "alt_km": 810.5509394158753,
        "timestamp": "2025-12-20T18:51:31.375964+00:00",
        "meta_object_name": "IONOSFERA-M 1",
        "meta_object_id": "2024-199A",
        "meta_epoch": "2025-12-20T15:13:04.564704",
        "meta_mean_motion": 14.2271563,
        "meta_eccentricity": 5.84e-05,
        "meta_inclination": 98.7399,
        "meta_ra_of_asc_node": 224.4215,
        "meta_arg_of_pericenter": 11.9613,
        "meta_mean_anomaly": 348.1579,
        "meta_ephemeris_type": 0,
        "meta_classification_type": "U",
        "meta_norad_cat_id": 61735,
        "meta_element_set_no": 999,
        "meta_rev_at_epoch": 10231,
        "meta_bstar": 3.796992e-05,
        "meta_mean_motion_dot": 4.1e-07,
        "meta_mean_motion_ddot": 0,
        "tle_line1": "1 61735U 24199A   25354.63408061  .00000041  00000+0  37970-4 0  9998",
        "tle_line2": "2 61735  98.7399 224.4215 0000584  11.9613 348.1579 14.22715630102312"
      },
      "geometry": {
        "type": "Point",
        "coordinates": [
          -148.41057512293995,
          55.5985021121684
        ]
      }
    },
    {
      "type": "Feature",
      "properties": {
        "norad_id": 61736,
        "name": "IONOSFERA-M 2",
        "group": "resource",
        "lat": -58.34463520759047,
        "lon": 30.036150212995945,
        "alt_km": 824.2384483487467,
        "timestamp": "2025-12-20T18:51:31.375974+00:00",
        "meta_object_name": "IONOSFERA-M 2",
        "meta_object_id": "2024-199B",
        "meta_epoch": "2025-12-20T14:21:40.725792",
        "meta_mean_motion": 14.22717806,
        "meta_eccentricity": 0.00018095,
        "meta_inclination": 98.7397,
        "meta_ra_of_asc_node": 224.2985,
        "meta_arg_of_pericenter": 100.497,
        "meta_mean_anomaly": 259.6411,
        "meta_ephemeris_type": 0,
        "meta_classification_type": "U",
        "meta_norad_cat_id": 61736,
        "meta_element_set_no": 999,
        "meta_rev_at_epoch": 10543,
        "meta_bstar": 3.9158909e-05,
        "meta_mean_motion_dot": 4.4e-07,
        "meta_mean_motion_ddot": 0,
        "tle_line1": "1 61736U 24199B   25354.59838803  .00000044  00000+0  39159-4 0  9999",
        "tle_line2": "2 61736  98.7397 224.2985 0001809 100.4970 259.6411 14.22717806105438"
      },
      "geometry": {
        "type": "Point",
        "coordinates": [
          30.036150212995945,
          -58.34463520759047
        ]
      }
    },
    {
      "type": "Feature",
      "properties": {
        "norad_id": 63772,
        "name": "BIOMASS",
        "group": "resource",
        "lat": -70.68239310801476,
        "lon": -156.44621461887053,
        "alt_km": 676.9144799423539,
        "timestamp": "2025-12-20T18:51:31.375983+00:00",
        "meta_object_name": "BIOMASS",
        "meta_object_id": "2025-090A",
        "meta_epoch": "2025-12-20T11:00:22.690080",
        "meta_mean_motion": 14.67537273,
        "meta_eccentricity": 0.00011035,
        "meta_inclination": 98.07,
        "meta_ra_of_asc_node": 179.356,
        "meta_arg_of_pericenter": 81.418,
        "meta_mean_anomaly": 278.715,
        "meta_ephemeris_type": 0,
        "meta_classification_type": "U",
        "meta_norad_cat_id": 63772,
        "meta_element_set_no": 999,
        "meta_rev_at_epoch": 3447,
        "meta_bstar": 0.0001671094,
        "meta_mean_motion_dot": 9e-06,
        "meta_mean_motion_ddot": 0,
        "tle_line1": "1 63772U 25090A   25354.45859595  .00000900  00000+0  16711-3 0  9997",
        "tle_line2": "2 63772  98.0700 179.3560 0001103  81.4180 278.7150 14.67537273 34472"
      },
      "geometry": {
        "type": "Point",
        "coordinates": [
          -156.44621461887053,
          -70.68239310801476
        ]
      }
    }
  ]
}